NORAD_CAT_ID,OBJECT_NAME,OBJECT_TYPE,EPOCH,MEAN_MOTION,ECCENTRICITY,INCLINATION,RA_OF_ASC_NODE,ARG_OF_PERICENTER,MEAN_ANOMALY,BSTAR,MEAN_MOTION_DOT,MEAN_MOTION_DDOT,TLE_LINE0,TLE_LINE1,TLE_LINE2,SEMIMAJOR_AXIS,PERIOD,APOGEE,PERIGEE,DECAYED
53397.0,STARLINK-4515,PAYLOAD,2023-10-21 12:02:38,15.08842701,0.0001155,53.2187,70.5432,104.7595,255.3525,2.674e-05,1.38e-06,0.0,0 STARLINK-4515,1 53397U 22097K   23294.50183943  .00000138  00000-0  26740-4 0  9995,2 53397  53.2187  70.5432 0001155 104.7595 255.3525 15.08842701 67140,6917.872,95.437,540.536,538.938,0.0
53397.0,STARLINK-4515,PAYLOAD,2023-10-21 18:24:10,15.08853358,0.0001601,53.2179,69.3533,85.8584,274.2591,0.00016062,2.27e-05,0.0,0 STARLINK-4515,1 53397U 22097K   23294.76679013  .00002270  00000-0  16062-3 0  9995,2 53397  53.2179  69.3533 0001601  85.8584 274.2591 15.08853358 66694,6917.84,95.437,540.812,538.597,0.0
53397.0,STARLINK-4515,PAYLOAD,2023-10-22 08:42:40,15.08825134,0.0001519,53.2172,66.6772,87.3739,272.7427,6.1677e-05,6.93e-06,0.0,0 STARLINK-4515,1 53397U 22097K   23295.36297234  .00000693  00000-0  61677-4 0  9993,2 53397  53.2172  66.6772 0001519  87.3739 272.7427 15.08825134 66781,6917.926,95.438,540.842,538.74,0.0
53397.0,STARLINK-4515,PAYLOAD,2023-10-22 13:28:49,15.08825771,7.12e-05,53.2175,65.7864,90.652,269.4554,7.5797e-05,9.18e-06,0.0,0 STARLINK-4515,1 53397U 22097K   23295.56168928  .00000918  00000-0  75797-4 0  9990,2 53397  53.2175  65.7864 0000712  90.6520 269.4554 15.08825771 67305,6917.924,95.438,540.281,539.296,0.0
53397.0,STARLINK-4515,PAYLOAD,2023-10-22 15:04:12,15.08820873,0.0001376,53.217,65.4887,105.605,254.5094,0.00010657,1.408e-05,0.0,0 STARLINK-4515,1 53397U 22097K   23295.62792816  .00001408  00000-0  10657-3 0  9994,2 53397  53.2170  65.4887 0001376 105.6050 254.5094 15.08820873 67317,6917.939,95.439,540.756,538.852,0.0
53397.0,STARLINK-4515,PAYLOAD,2023-10-23 02:11:54,15.08837615,0.0001602,53.218,63.4072,92.8713,267.2463,4.3957e-05,4.12e-06,0.0,0 STARLINK-4515,1 53397U 22097K   23296.09160863  .00000412  00000-0  43957-4 0  9991,2 53397  53.2180  63.4072 0001602  92.8713 267.2463 15.08837615 66892,6917.888,95.438,540.861,538.644,0.0
53397.0,STARLINK-4515,PAYLOAD,2023-10-23 14:54:58,15.08898273,0.0001727,53.2176,61.0282,74.2522,285.866,-0.00068649,-0.00011215,0.0,0 STARLINK-4515,1 53397U 22097K   23296.62151314 -.00011215  00000-0 -68649-3 0  9990,2 53397  53.2176  61.0282 0001727  74.2522 285.8660 15.08898273 66975,6917.702,95.434,540.762,538.373,0.0
53397.0,STARLINK-4515,PAYLOAD,2023-10-24 02:02:42,15.08833397,0.0001407,53.2182,58.9472,94.1916,265.9237,0.00012154,1.647e-05,0.0,0 STARLINK-4515,1 53397U 22097K   23297.08520864  .00001647  00000-0  12154-3 0  9997,2 53397  53.2182  58.9472 0001407  94.1916 265.9237 15.08833397 67045,6917.901,95.438,540.739,538.792,0.0
53397.0,STARLINK-4515,PAYLOAD,2023-10-24 14:45:47,15.08835332,0.0001399,53.2185,56.5704,80.2378,279.8772,9.362e-05,1.202e-05,0.0,0 STARLINK-4515,1 53397U 22097K   23297.61513085  .00001202  00000-0  93620-4 0  9998,2 53397  53.2185  56.5704 0001399  80.2378 279.8772 15.08835332 67610,6917.895,95.438,540.727,538.792,0.0
53397.0,STARLINK-4515,PAYLOAD,2023-10-25 14:36:34,15.08840066,0.0001522,53.2188,52.1086,85.9912,274.1254,9.004e-05,1.145e-05,0.0,0 STARLINK-4515,1 53397U 22097K   23298.60872850  .00001145  00000-0  90040-4 0  9995,2 53397  53.2188  52.1086 0001522  85.9912 274.1254 15.08840066 67277,6917.88,95.438,540.798,538.692,0.0
53397.0,STARLINK-4515,PAYLOAD,2023-10-26 12:51:58,15.08840765,0.0001566,53.2192,47.946,93.543,266.5741,9.5533e-05,1.233e-05,0.0,0 STARLINK-4515,1 53397U 22097K   23299.53608837  .00001233  00000-0  95533-4 0  9990,2 53397  53.2192  47.9460 0001566  93.5430 266.5741 15.08840765 67900,6917.878,95.438,540.826,538.66,0.0
53397.0,STARLINK-4515,PAYLOAD,2023-10-26 23:59:39,15.08843465,0.0001322,53.2187,45.8645,84.1196,275.9947,8.8873e-05,1.127e-05,0.0,0 STARLINK-4515,1 53397U 22097K   23299.99976578  .00001127  00000-0  88873-4 0  9991,2 53397  53.2187  45.8645 0001322  84.1196 275.9947 15.08843465 67486,6917.87,95.437,540.649,538.82,0.0
53397.0,STARLINK-4515,PAYLOAD,2023-10-27 11:07:24,15.08812353,0.0001506,53.2194,43.783,88.5918,271.5247,-0.00019077,-3.32e-05,0.0,0 STARLINK-4515,1 53397U 22097K   23300.46347887 -.00003320  00000-0 -19077-3 0  9999,2 53397  53.2194  43.7830 0001506  88.5918 271.5247 15.08812353 67556,6917.965,95.439,540.872,538.788,0.0
53397.0,STARLINK-4515,PAYLOAD,2023-10-27 14:18:10,15.08841473,0.0001863,53.22,43.1924,97.9352,262.1852,-0.00054012,-8.874e-05,0.0,0 STARLINK-4515,1 53397U 22097K   23300.59594948 -.00008874  00000-0 -54012-3 0  9992,2 53397  53.2200  43.1924 0001863  97.9352 262.1852 15.08841473 68064,6917.876,95.437,541.03,538.452,0.0
53397.0,STARLINK-4515,PAYLOAD,2023-10-27 17:28:56,15.08823607,0.000152,53.2194,42.5935,91.327,268.7896,-8.7572e-05,-1.681e-05,0.0,0 STARLINK-4515,1 53397U 22097K   23300.72843241 -.00001681  00000-0 -87572-4 0  9997,2 53397  53.2194  42.5935 0001520  91.3270 268.7896 15.08823607 67594,6917.93,95.439,540.847,538.744,0.0
53397.0,STARLINK-4515,PAYLOAD,2023-10-27 23:50:28,15.08830165,0.0001377,53.2195,41.4049,92.5982,267.5168,4.2904e-06,-2.2e-06,0.0,0 STARLINK-4515,1 53397U 22097K   23300.99338747 -.00000220  00000-0  42904-5 0  9994,2 53397  53.2195  41.4049 0001377  92.5982 267.5168 15.08830165 67633,6917.91,95.438,540.728,538.823,0.0
53397.0,STARLINK-4515,PAYLOAD,2023-10-28 12:33:32,15.08848417,0.0001648,53.2195,39.0244,87.6648,272.4533,9.5473e-05,1.232e-05,0.0,0 STARLINK-4515,1 53397U 22097K   23301.52329572  .00001232  00000-0  95473-4 0  9991,2 53397  53.2195  39.0244 0001648  87.6648 272.4533 15.08848417 67717,6917.855,95.437,540.86,538.58,0.0
53397.0,STARLINK-4515,PAYLOAD,2023-10-28 14:08:55,15.08855929,0.0001405,53.2189,38.7283,87.4448,272.6705,0.00017164,2.446e-05,0.0,0 STARLINK-4515,1 53397U 22097K   23301.58952741  .00002446  00000-0  17164-3 0  9995,2 53397  53.2189  38.7283 0001405  87.4448 272.6705 15.08855929 68211,6917.832,95.437,540.669,538.725,0.0
53397.0,STARLINK-4515,PAYLOAD,2023-10-28 15:44:18,15.08858189,0.0001368,53.2188,38.4308,94.6043,265.5105,0.00018643,2.682e-05,0.0,0 STARLINK-4515,1 53397U 22097K   23301.65576470  .00002682  00000-0  18643-3 0  9999,2 53397  53.2188  38.4308 0001368  94.6043 265.5105 15.08858189 67736,6917.825,95.436,540.636,538.743,0.0
53397.0,STARLINK-4515,PAYLOAD,2023-10-28 23:41:14,15.08855129,0.0001649,53.2203,36.9426,106.7704,253.3469,6.1902e-05,6.98e-06,0.0,0 STARLINK-4515,1 53397U 22097K   23301.98696826  .00000698  00000-0  61902-4 0  9995,2 53397  53.2203  36.9426 0001649 106.7704 253.3469 15.08855129 67783,6917.834,95.437,540.84,538.558,0.0
53397.0,STARLINK-4515,PAYLOAD,2023-10-29 13:59:41,15.08860992,0.0001406,53.2199,34.2667,86.2512,273.8641,0.00037602,5.705e-05,0.0,0 STARLINK-4515,1 53397U 22097K   23302.58311656  .00005705  00000-0  37602-3 0  9990,2 53397  53.2199  34.2667 0001406  86.2512 273.8641 15.08860992 68363,6917.816,95.436,540.654,538.709,0.0
53397.0,STARLINK-4515,PAYLOAD,2023-10-30 01:07:24,15.08842532,0.0001135,53.2211,32.1861,102.5836,257.5283,8.8233e-05,1.117e-05,0.0,0 STARLINK-4515,1 53397U 22097K   23303.04681369  .00001117  00000-0  88233-4 0  9993,2 53397  53.2211  32.1861 0001135 102.5836 257.5283 15.08842532 67945,6917.873,95.437,540.523,538.952,0.0
53397.0,STARLINK-4515,PAYLOAD,2023-10-30 12:15:07,15.08842893,0.0001389,53.2185,30.1063,71.5428,288.5715,-0.00016037,-2.84e-05,0.0,0 STARLINK-4515,1 53397U 22097K   23303.51050260 -.00002840  00000-0 -16037-3 0  9993,2 53397  53.2185  30.1063 0001389  71.5428 288.5715 15.08842893 68013,6917.872,95.437,540.697,538.776,0.0
53397.0,STARLINK-4515,PAYLOAD,2023-10-31 12:05:53,15.08851678,0.0001416,53.2192,25.6423,83.7002,276.4151,-0.0001115,-2.063e-05,0.0,0 STARLINK-4515,1 53397U 22097K   23304.50409289 -.00002063  00000-0 -11150-3 0  9990,2 53397  53.2192  25.6423 0001416  83.7002 276.4151 15.08851678 68161,6917.845,95.437,540.689,538.73,0.0
53397.0,STARLINK-4515,PAYLOAD,2023-10-31 15:16:39,15.0885457,0.0001432,53.2191,25.0471,84.4469,275.6686,-8.1885e-05,-1.591e-05,0.0,0 STARLINK-4515,1 53397U 22097K   23304.63656943 -.00001591  00000-0 -81885-4 0  9993,2 53397  53.2191  25.0471 0001432  84.4469 275.6686 15.08854570 68674,6917.836,95.437,540.691,538.71,0.0
53397.0,STARLINK-4515,PAYLOAD,2023-11-01 11:56:40,15.08837228,0.0001314,53.2196,21.1808,82.6816,277.4326,0.00028133,4.192e-05,0.0,0 STARLINK-4515,1 53397U 22097K   23305.49769422  .00004192  00000-0  28133-3 0  9999,2 53397  53.2196  21.1808 0001314  82.6816 277.4326 15.08837228 68318,6917.889,95.438,540.663,538.845,0.0
53397.0,STARLINK-4515,PAYLOAD,2023-11-01 15:07:26,15.08855401,0.0001706,53.2197,20.5861,95.9239,264.1948,4.3576e-05,4.06e-06,0.0,0 STARLINK-4515,1 53397U 22097K   23305.63016636  .00000406  00000-0  43576-4 0  9990,2 53397  53.2197  20.5861 0001706  95.9239 264.1948 15.08855401 68330,6917.833,95.437,540.878,538.518,0.0
53397.0,STARLINK-4515,PAYLOAD,2023-11-02 05:25:55,15.08840503,0.0001629,53.2189,17.9092,74.8414,285.2759,5.1108e-05,5.25e-06,0.0,0 STARLINK-4515,1 53397U 22097K   23306.22633894  .00000525  00000-0  51108-4 0  9999,2 53397  53.2189  17.9092 0001629  74.8414 285.2759 15.08840503 68423,6917.879,95.438,540.871,538.617,0.0
53397.0,STARLINK-4515,PAYLOAD,2023-11-02 11:47:27,15.08850733,0.0001543,53.2181,16.7225,74.6064,285.5099,0.00016831,2.392e-05,0.0,0 STARLINK-4515,1 53397U 22097K   23306.49129293  .00002392  00000-0  16831-3 0  9998,2 53397  53.2181  16.7225 0001543  74.6064 285.5099 15.08850733 68464,6917.848,95.437,540.78,538.645,0.0
53397.0,STARLINK-4515,PAYLOAD,2023-11-02 21:19:46,15.08842874,0.0001553,53.2187,14.9377,75.4778,284.6387,4.39e-05,4.11e-06,0.0,0 STARLINK-4515,1 53397U 22097K   23306.88873547  .00000411  00000-0  43900-4 0  9997,2 53397  53.2187  14.9377 0001553  75.4778 284.6387 15.08842874 69019,6917.872,95.437,540.811,538.662,0.0
